{
  "type": "FeatureCollection",
  "features": [
    {
      "type": "Feature",
      "properties": {
        "norad_id": 66334,
        "name": "STARLINK-35407",
        "group": "last-30-days",
        "lat": 15.474446370159187,
        "lon": -151.36821632216524,
        "alt_km": 412.4291346544169,
        "timestamp": "2025-12-02T06:27:51.799695+00:00",
        "meta_object_name": "STARLINK-35407",
        "meta_object_id": "2025-253R",
        "meta_epoch": "2025-11-30T16:41:25.488960",
        "meta_mean_motion": 15.50547998,
        "meta_eccentricity": 9.092e-05,
        "meta_inclination": 43.0003,
        "meta_ra_of_asc_node": 55.1243,
        "meta_arg_of_pericenter": 295.1018,
        "meta_mean_anomaly": 64.9747,
        "meta_ephemeris_type": 0,
        "meta_classification_type": "U",
        "meta_norad_cat_id": 66334,
        "meta_element_set_no": 999,
        "meta_rev_at_epoch": 506,
        "meta_bstar": 0.0013875162,
        "meta_mean_motion_dot": 0.00081821,
        "meta_mean_motion_ddot": 0,
        "tle_line1": "1 66334U 25253R   25334.69543390  .00081821  00000+0  13875-2 0  9990",
        "tle_line2": "2 66334  43.0003  55.1243 0000909 295.1018  64.9747 15.50547998  5069"
      },
      "geometry": {
        "type": "Point",
        "coordinates": [
          -151.36821632216524,
          15.474446370159187
        ]
      }
    },
    {
      "type": "Feature",
      "properties": {
        "norad_id": 66335,
        "name": "STARLINK-35417",
        "group": "last-30-days",
        "lat": 37.082147460105226,
        "lon": 100.34477762435291,
        "alt_km": 438.96005949090977,
        "timestamp": "2025-12-02T06:27:51.799706+00:00",
        "meta_object_name": "STARLINK-35417",
        "meta_object_id": "2025-253S",
        "meta_epoch": "2025-12-01T20:00:01.999008",
        "meta_mean_motion": 15.40687238,
        "meta_eccentricity": 0.000139,
        "meta_inclination": 43.0008,
        "meta_ra_of_asc_node": 48.6588,
        "meta_arg_of_pericenter": 267.9074,
        "meta_mean_anomaly": 253.1942,
        "meta_ephemeris_type": 0,
        "meta_classification_type": "U",
        "meta_norad_cat_id": 66335,
        "meta_element_set_no": 999,
        "meta_rev_at_epoch": 517,
        "meta_bstar": 0.00041054,
        "meta_mean_motion_dot": 0.00016876,
        "meta_mean_motion_ddot": 0,
        "tle_line1": "1 66335U 25253S   25335.83335647  .00016876  00000+0  41054-3 0  9991",
        "tle_line2": "2 66335  43.0008  48.6588 0001390 267.9074 253.1942 15.40687238  5170"
      },
      "geometry": {
        "type": "Point",
        "coordinates": [
          100.34477762435291,
          37.082147460105226
        ]
      }
    },
    {
      "type": "Feature",
      "properties": {
        "norad_id": 66336,
        "name": "STARLINK-35404",
        "group": "last-30-days",
        "lat": 9.361331158894032,
        "lon": -144.29675036217677,
        "alt_km": 413.7794029843326,
        "timestamp": "2025-12-02T06:27:51.799716+00:00",
        "meta_object_name": "STARLINK-35404",
        "meta_object_id": "2025-253T",
        "meta_epoch": "2025-12-01T14:17:33.002304",
        "meta_mean_motion": 15.50603343,
        "meta_eccentricity": 0.00016041,
        "meta_inclination": 43.0007,
        "meta_ra_of_asc_node": 49.8357,
        "meta_arg_of_pericenter": 288.4901,
        "meta_mean_anomaly": 71.5784,
        "meta_ephemeris_type": 0,
        "meta_classification_type": "U",
        "meta_norad_cat_id": 66336,
        "meta_element_set_no": 999,
        "meta_rev_at_epoch": 520,
        "meta_bstar": 0.0012973649,
        "meta_mean_motion_dot": 0.00076583,
        "meta_mean_motion_ddot": 0,
        "tle_line1": "1 66336U 25253T   25335.59552086  .00076583  00000+0  12974-2 0  9992",
        "tle_line2": "2 66336  43.0007  49.8357 0001604 288.4901  71.5784 15.50603343  5208"
      },
      "geometry": {
        "type": "Point",
        "coordinates": [
          -144.29675036217677,
          9.361331158894032
        ]
      }
    },
    {
      "type": "Feature",
      "properties": {
        "norad_id": 66337,
        "name": "STARLINK-34783",
        "group": "last-30-days",
        "lat": 42.908212724315234,
        "lon": 132.01475211526085,
        "alt_km": 438.4520594007272,
        "timestamp": "2025-12-02T06:27:51.799727+00:00",
        "meta_object_name": "STARLINK-34783",
        "meta_object_id": "2025-253U",
        "meta_epoch": "2025-12-01T20:00:01.999008",
        "meta_mean_motion": 15.40695935,
        "meta_eccentricity": 0.0001898,
        "meta_inclination": 43.0007,
        "meta_ra_of_asc_node": 48.5996,
        "meta_arg_of_pericenter": 272.9318,
        "meta_mean_anomaly": 272.9585,
        "meta_ephemeris_type": 0,
        "meta_classification_type": "U",
        "meta_norad_cat_id": 66337,
        "meta_element_set_no": 999,
        "meta_rev_at_epoch": 522,
        "meta_bstar": 0.0006234,
        "meta_mean_motion_dot": 0.00025822,
        "meta_mean_motion_ddot": 0,
        "tle_line1": "1 66337U 25253U   25335.83335647  .00025822  00000+0  62340-3 0  9995",
        "tle_line2": "2 66337  43.0007  48.5996 0001898 272.9318 272.9585 15.40695935  5224"
      },
      "geometry": {
        "type": "Point",
        "coordinates": [
          132.01475211526085,
          42.908212724315234
        ]
      }
    },
    {
      "type": "Feature",
      "properties": {
        "norad_id": 66338,
        "name": "STARLINK-35477",
        "group": "last-30-days",
        "lat": 31.33596489263708,
        "lon": 86.97365140861842,
        "alt_km": 439.4392612829879,
        "timestamp": "2025-12-02T06:27:51.799737+00:00",
        "meta_object_name": "STARLINK-35477",
        "meta_object_id": "2025-253V",
        "meta_epoch": "2025-12-01T20:00:01.999008",
        "meta_mean_motion": 15.40677338,
        "meta_eccentricity": 8.79e-05,
        "meta_inclination": 43.0004,
        "meta_ra_of_asc_node": 48.6892,
        "meta_arg_of_pericenter": 275.3684,
        "meta_mean_anomaly": 233.2878,
        "meta_ephemeris_type": 0,
        "meta_classification_type": "U",
        "meta_norad_cat_id": 66338,
        "meta_element_set_no": 999,
        "meta_rev_at_epoch": 527,
        "meta_bstar": 0.00072139,
        "meta_mean_motion_dot": 0.00029926,
        "meta_mean_motion_ddot": 0,
        "tle_line1": "1 66338U 25253V   25335.83335647  .00029926  00000+0  72139-3 0  9992",
        "tle_line2": "2 66338  43.0004  48.6892 0000879 275.3684 233.2878 15.40677338  5276"
      },
      "geometry": {
        "type": "Point",
        "coordinates": [
          86.97365140861842,
          31.33596489263708
        ]
      }
    },
    {
      "type": "Feature",
      "properties": {
        "norad_id": 66339,
        "name": "STARLINK-35443",
        "group": "last-30-days",
        "lat": 0.13926677425911205,
        "lon": -134.29188778003763,
        "alt_km": 414.08309710480535,
        "timestamp": "2025-12-02T06:27:51.799748+00:00",
        "meta_object_name": "STARLINK-35443",
        "meta_object_id": "2025-253W",
        "meta_epoch": "2025-12-01T14:14:04.627968",
        "meta_mean_motion": 15.50646058,
        "meta_eccentricity": 0.00043381,
        "meta_inclination": 42.9999,
        "meta_ra_of_asc_node": 49.8149,
        "meta_arg_of_pericenter": 264.7706,
        "meta_mean_anomaly": 95.2659,
        "meta_ephemeris_type": 0,
        "meta_classification_type": "U",
        "meta_norad_cat_id": 66339,
        "meta_element_set_no": 999,
        "meta_rev_at_epoch": 520,
        "meta_bstar": 0.0020945977,
        "meta_mean_motion_dot": 0.00124844,
        "meta_mean_motion_ddot": 0,
        "tle_line1": "1 66339U 25253W   25335.59310912  .00124844  00000+0  20946-2 0  9997",
        "tle_line2": "2 66339  42.9999  49.8149 0004338 264.7706  95.2659 15.50646058  5209"
      },
      "geometry": {
        "type": "Point",
        "coordinates": [
          -134.29188778003763,
          0.13926677425911205
        ]
      }
    },
    {
      "type": "Feature",
      "properties": {
        "norad_id": 66340,
        "name": "STARLINK-35218",
        "group": "last-30-days",
        "lat": 8.014472786721718,
        "lon": -142.80272304667392,
        "alt_km": 413.7071550555893,
        "timestamp": "2025-12-02T06:27:51.799758+00:00",
        "meta_object_name": "STARLINK-35218",
        "meta_object_id": "2025-253X",
        "meta_epoch": "2025-12-01T14:17:03.181344",
        "meta_mean_motion": 15.50618519,
        "meta_eccentricity": 0.00019254,
        "meta_inclination": 43.0003,
        "meta_ra_of_asc_node": 49.8326,
        "meta_arg_of_pericenter": 277.9087,
        "meta_mean_anomaly": 82.1554,
        "meta_ephemeris_type": 0,
        "meta_classification_type": "U",
        "meta_norad_cat_id": 66340,
        "meta_element_set_no": 999,
        "meta_rev_at_epoch": 520,
        "meta_bstar": 0.0017664501,
        "meta_mean_motion_dot": 0.00104835,
        "meta_mean_motion_ddot": 0,
        "tle_line1": "1 66340U 25253X   25335.59517571  .00104835  00000+0  17665-2 0  9991",
        "tle_line2": "2 66340  43.0003  49.8326 0001925 277.9087  82.1554 15.50618519  5203"
      },
      "geometry": {
        "type": "Point",
        "coordinates": [
          -142.80272304667392,
          8.014472786721718
        ]
      }
    }
  ]
}